[{"OBJECT_NAME":"STARLINK-34247","OBJECT_ID":"2025-167F","EPOCH":"2026-03-09T06:54:57.430944","MEAN_MOTION":15.30140319,"ECCENTRICITY":0.00011315,"INCLINATION":53.1607,"RA_OF_ASC_NODE":26.0683,"ARG_OF_PERICENTER":114.2157,"MEAN_ANOMALY":245.8962,"EPHEMERIS_TYPE":0,"CLASSIFICATION_TYPE":"U","NORAD_CAT_ID":65083,"ELEMENT_SET_NO":999,"REV_AT_EPOCH":3345,"BSTAR":0.0013333294,"MEAN_MOTION_DOT":0.00039266,"MEAN_MOTION_DDOT":0},{"OBJECT_NAME":"CZ-2F DEB","OBJECT_ID":"2026-024G","EPOCH":"2026-03-09T22:26:56.614272","MEAN_MOTION":15.01116214,"ECCENTRICITY":0.03207922,"INCLINATION":49.8328,"RA_OF_ASC_NODE":21.451,"ARG_OF_PERICENTER":268.4479,"MEAN_ANOMALY":87.9702,"EPHEMERIS_TYPE":0,"CLASSIFICATION_TYPE":"U","NORAD_CAT_ID":67720,"ELEMENT_SET_NO":999,"REV_AT_EPOCH":459,"BSTAR":0.0038278463,"MEAN_MOTION_DOT":0.00157764,"MEAN_MOTION_DDOT":0}]
